<?xml version="1.0" encoding="UTF-8"?>
<ndm xmlns:xsi="http://www.w3.org/2001/XMLSchema-instance" xsi:noNamespaceSchemaLocation="https://sanaregistry.org/r/ndmxml_unqualified/ndmxml-2.0.0-master-2.0.xsd">
<omm id="CCSDS_OMM_VERS" version="2.0">
<header><CREATION_DATE/><ORIGINATOR/></header><body><segment><metadata><OBJECT_NAME>KUIPER-00116</OBJECT_NAME><OBJECT_ID>2025-171X</OBJECT_ID><CENTER_NAME>EARTH</CENTER_NAME><REF_FRAME>TEME</REF_FRAME><TIME_SYSTEM>UTC</TIME_SYSTEM><MEAN_ELEMENT_THEORY>SGP4</MEAN_ELEMENT_THEORY></metadata><data><meanElements><EPOCH>2026-01-17T10:33:11.621376</EPOCH><MEAN_MOTION>14.79984281</MEAN_MOTION><ECCENTRICITY>.00087226</ECCENTRICITY><INCLINATION>51.9002</INCLINATION><RA_OF_ASC_NODE>39.7558</RA_OF_ASC_NODE><ARG_OF_PERICENTER>286.7737</ARG_OF_PERICENTER><MEAN_ANOMALY>73.2268</MEAN_ANOMALY></meanElements><tleParameters><EPHEMERIS_TYPE>0</EPHEMERIS_TYPE><CLASSIFICATION_TYPE>U</CLASSIFICATION_TYPE><NORAD_CAT_ID>65153</NORAD_CAT_ID><ELEMENT_SET_NO>999</ELEMENT_SET_NO><REV_AT_EPOCH>2508</REV_AT_EPOCH><BSTAR>.60642197E-3</BSTAR><MEAN_MOTION_DOT>.4411E-4</MEAN_MOTION_DOT><MEAN_MOTION_DDOT>0</MEAN_MOTION_DDOT></tleParameters></data></segment></body></omm>
<omm id="CCSDS_OMM_VERS" version="2.0">
<header><CREATION_DATE/><ORIGINATOR/></header><body><segment><metadata><OBJECT_NAME>KUIPER-00118</OBJECT_NAME><OBJECT_ID>2025-171Y</OBJECT_ID><CENTER_NAME>EARTH</CENTER_NAME><REF_FRAME>TEME</REF_FRAME><TIME_SYSTEM>UTC</TIME_SYSTEM><MEAN_ELEMENT_THEORY>SGP4</MEAN_ELEMENT_THEORY></metadata><data><meanElements><EPOCH>2026-01-17T18:35:48.005952</EPOCH><MEAN_MOTION>14.79931583</MEAN_MOTION><ECCENTRICITY>.0001153</ECCENTRICITY><INCLINATION>51.9000</INCLINATION><RA_OF_ASC_NODE>40.7317</RA_OF_ASC_NODE><ARG_OF_PERICENTER>0.5838</ARG_OF_PERICENTER><MEAN_ANOMALY>359.5126</MEAN_ANOMALY></meanElements><tleParameters><EPHEMERIS_TYPE>0</EPHEMERIS_TYPE><CLASSIFICATION_TYPE>U</CLASSIFICATION_TYPE><NORAD_CAT_ID>65154</NORAD_CAT_ID><ELEMENT_SET_NO>999</ELEMENT_SET_NO><REV_AT_EPOCH>2510</REV_AT_EPOCH><BSTAR>.5360982E-3</BSTAR><MEAN_MOTION_DOT>.3868E-4</MEAN_MOTION_DOT><MEAN_MOTION_DDOT>0</MEAN_MOTION_DDOT></tleParameters></data></segment></body></omm>
<omm id="CCSDS_OMM_VERS" version="2.0">
<header><CREATION_DATE/><ORIGINATOR/></header><body><segment><metadata><OBJECT_NAME>KUIPER-00119</OBJECT_NAME><OBJECT_ID>2025-171Z</OBJECT_ID><CENTER_NAME>EARTH</CENTER_NAME><REF_FRAME>TEME</REF_FRAME><TIME_SYSTEM>UTC</TIME_SYSTEM><MEAN_ELEMENT_THEORY>SGP4</MEAN_ELEMENT_THEORY></metadata><data><meanElements><EPOCH>2026-01-17T10:48:26.400384</EPOCH><MEAN_MOTION>14.79976776</MEAN_MOTION><ECCENTRICITY>.00075895</ECCENTRICITY><INCLINATION>51.9012</INCLINATION><RA_OF_ASC_NODE>29.7471</RA_OF_ASC_NODE><ARG_OF_PERICENTER>320.6094</ARG_OF_PERICENTER><MEAN_ANOMALY>39.4316</MEAN_ANOMALY></meanElements><tleParameters><EPHEMERIS_TYPE>0</EPHEMERIS_TYPE><CLASSIFICATION_TYPE>U</CLASSIFICATION_TYPE><NORAD_CAT_ID>65155</NORAD_CAT_ID><ELEMENT_SET_NO>999</ELEMENT_SET_NO><REV_AT_EPOCH>2522</REV_AT_EPOCH><BSTAR>.45947559E-3</BSTAR><MEAN_MOTION_DOT>.3287E-4</MEAN_MOTION_DOT><MEAN_MOTION_DDOT>0</MEAN_MOTION_DDOT></tleParameters></data></segment></body></omm>
<omm id="CCSDS_OMM_VERS" version="2.0">
<header><CREATION_DATE/><ORIGINATOR/></header><body><segment><metadata><OBJECT_NAME>KUIPER-00120</OBJECT_NAME><OBJECT_ID>2025-217A</OBJECT_ID><CENTER_NAME>EARTH</CENTER_NAME><REF_FRAME>TEME</REF_FRAME><TIME_SYSTEM>UTC</TIME_SYSTEM><MEAN_ELEMENT_THEORY>SGP4</MEAN_ELEMENT_THEORY></metadata><data><meanElements><EPOCH>2026-01-17T21:18:38.998368</EPOCH><MEAN_MOTION>14.76378729</MEAN_MOTION><ECCENTRICITY>.00036817</ECCENTRICITY><INCLINATION>51.8996</INCLINATION><RA_OF_ASC_NODE>277.0062</RA_OF_ASC_NODE><ARG_OF_PERICENTER>116.0181</ARG_OF_PERICENTER><MEAN_ANOMALY>244.1160</MEAN_ANOMALY></meanElements><tleParameters><EPHEMERIS_TYPE>0</EPHEMERIS_TYPE><CLASSIFICATION_TYPE>U</CLASSIFICATION_TYPE><NORAD_CAT_ID>65762</NORAD_CAT_ID><ELEMENT_SET_NO>999</ELEMENT_SET_NO><REV_AT_EPOCH>1722</REV_AT_EPOCH><BSTAR>.49576467E-3</BSTAR><MEAN_MOTION_DOT>.3262E-4</MEAN_MOTION_DOT><MEAN_MOTION_DDOT>0</MEAN_MOTION_DDOT></tleParameters></data></segment></body></omm>
<omm id="CCSDS_OMM_VERS" version="2.0">
<header><CREATION_DATE/><ORIGINATOR/></header><body><segment><metadata><OBJECT_NAME>KUIPER-00132</OBJECT_NAME><OBJECT_ID>2025-217B</OBJECT_ID><CENTER_NAME>EARTH</CENTER_NAME><REF_FRAME>TEME</REF_FRAME><TIME_SYSTEM>UTC</TIME_SYSTEM><MEAN_ELEMENT_THEORY>SGP4</MEAN_ELEMENT_THEORY></metadata><data><meanElements><EPOCH>2026-01-17T21:37:32.757312</EPOCH><MEAN_MOTION>15.38076012</MEAN_MOTION><ECCENTRICITY>.00083493</ECCENTRICITY><INCLINATION>51.8608</INCLINATION><RA_OF_ASC_NODE>249.7440</RA_OF_ASC_NODE><ARG_OF_PERICENTER>141.7790</ARG_OF_PERICENTER><MEAN_ANOMALY>218.3790</MEAN_ANOMALY></meanElements><tleParameters><EPHEMERIS_TYPE>0</EPHEMERIS_TYPE><CLASSIFICATION_TYPE>U</CLASSIFICATION_TYPE><NORAD_CAT_ID>65763</NORAD_CAT_ID><ELEMENT_SET_NO>999</ELEMENT_SET_NO><REV_AT_EPOCH>1760</REV_AT_EPOCH><BSTAR>.83661004E-3</BSTAR><MEAN_MOTION_DOT>.31615E-3</MEAN_MOTION_DOT><MEAN_MOTION_DDOT>0</MEAN_MOTION_DDOT></tleParameters></data></segment></body></omm>
<omm id="CCSDS_OMM_VERS" version="2.0">
<header><CREATION_DATE/><ORIGINATOR/></header><body><segment><metadata><OBJECT_NAME>KUIPER-00133</OBJECT_NAME><OBJECT_ID>2025-217C</OBJECT_ID><CENTER_NAME>EARTH</CENTER_NAME><REF_FRAME>TEME</REF_FRAME><TIME_SYSTEM>UTC</TIME_SYSTEM><MEAN_ELEMENT_THEORY>SGP4</MEAN_ELEMENT_THEORY></metadata><data><meanElements><EPOCH>2026-01-14T22:51:31.902912</EPOCH><MEAN_MOTION>14.79861226</MEAN_MOTION><ECCENTRICITY>.0011341</ECCENTRICITY><INCLINATION>51.9046</INCLINATION><RA_OF_ASC_NODE>290.7307</RA_OF_ASC_NODE><ARG_OF_PERICENTER>140.1401</ARG_OF_PERICENTER><MEAN_ANOMALY>220.0396</MEAN_ANOMALY></meanElements><tleParameters><EPHEMERIS_TYPE>0</EPHEMERIS_TYPE><CLASSIFICATION_TYPE>U</CLASSIFICATION_TYPE><NORAD_CAT_ID>65764</NORAD_CAT_ID><ELEMENT_SET_NO>999</ELEMENT_SET_NO><REV_AT_EPOCH>1678</REV_AT_EPOCH><BSTAR>-.58415E-3</BSTAR><MEAN_MOTION_DOT>-.4671E-4</MEAN_MOTION_DOT><MEAN_MOTION_DDOT>0</MEAN_MOTION_DDOT></tleParameters></data></segment></body></omm>
<omm id="CCSDS_OMM_VERS" version="2.0">
<header><CREATION_DATE/><ORIGINATOR/></header><body><segment><metadata><OBJECT_NAME>KUIPER-00139</OBJECT_NAME><OBJECT_ID>2025-217D</OBJECT_ID><CENTER_NAME>EARTH</CENTER_NAME><REF_FRAME>TEME</REF_FRAME><TIME_SYSTEM>UTC</TIME_SYSTEM><MEAN_ELEMENT_THEORY>SGP4</MEAN_ELEMENT_THEORY></metadata><data><meanElements><EPOCH>2026-01-17T22:37:35.615712</EPOCH><MEAN_MOTION>15.02247321</MEAN_MOTION><ECCENTRICITY>.00083942</ECCENTRICITY><INCLINATION>51.8847</INCLINATION><RA_OF_ASC_NODE>266.1769</RA_OF_ASC_NODE><ARG_OF_PERICENTER>144.0544</ARG_OF_PERICENTER><MEAN_ANOMALY>216.0994</MEAN_ANOMALY></meanElements><tleParameters><EPHEMERIS_TYPE>0</EPHEMERIS_TYPE><CLASSIFICATION_TYPE>U</CLASSIFICATION_TYPE><NORAD_CAT_ID>65765</NORAD_CAT_ID><ELEMENT_SET_NO>999</ELEMENT_SET_NO><REV_AT_EPOCH>1738</REV_AT_EPOCH><BSTAR>.54212237E-3</BSTAR><MEAN_MOTION_DOT>.697E-4</MEAN_MOTION_DOT><MEAN_MOTION_DDOT>0</MEAN_MOTION_DDOT></tleParameters></data></segment></body></omm>
<omm id="CCSDS_OMM_VERS" version="2.0">
<header><CREATION_DATE/><ORIGINATOR/></header><body><segment><metadata><OBJECT_NAME>KUIPER-00142</OBJECT_NAME><OBJECT_ID>2025-217E</OBJECT_ID><CENTER_NAME>EARTH</CENTER_NAME><REF_FRAME>TEME</REF_FRAME><TIME_SYSTEM>UTC</TIME_SYSTEM><MEAN_ELEMENT_THEORY>SGP4</MEAN_ELEMENT_THEORY></metadata><data><meanElements><EPOCH>2026-01-17T22:00:03.000096</EPOCH><MEAN_MOTION>14.81000136</MEAN_MOTION><ECCENTRICITY>.00018624</ECCENTRICITY><INCLINATION>51.8982</INCLINATION><RA_OF_ASC_NODE>260.1270</RA_OF_ASC_NODE><ARG_OF_PERICENTER>62.2050</ARG_OF_PERICENTER><MEAN_ANOMALY>333.9491</MEAN_ANOMALY></meanElements><tleParameters><EPHEMERIS_TYPE>0</EPHEMERIS_TYPE><CLASSIFICATION_TYPE>U</CLASSIFICATION_TYPE><NORAD_CAT_ID>65766</NORAD_CAT_ID><ELEMENT_SET_NO>999</ELEMENT_SET_NO><REV_AT_EPOCH>512</REV_AT_EPOCH><BSTAR>-.58369881E-2</BSTAR><MEAN_MOTION_DOT>-.45562E-3</MEAN_MOTION_DOT><MEAN_MOTION_DDOT>0</MEAN_MOTION_DDOT></tleParameters></data></segment></body></omm>
<omm id="CCSDS_OMM_VERS" version="2.0">
<header><CREATION_DATE/><ORIGINATOR/></header><body><segment><metadata><OBJECT_NAME>KUIPER-00145</OBJECT_NAME><OBJECT_ID>2025-217F</OBJECT_ID><CENTER_NAME>EARTH</CENTER_NAME><REF_FRAME>TEME</REF_FRAME><TIME_SYSTEM>UTC</TIME_SYSTEM><MEAN_ELEMENT_THEORY>SGP4</MEAN_ELEMENT_THEORY></metadata><data><meanElements><EPOCH>2026-01-17T23:22:16.437504</EPOCH><MEAN_MOTION>14.79924321</MEAN_MOTION><ECCENTRICITY>.00014966</ECCENTRICITY><INCLINATION>51.8993</INCLINATION><RA_OF_ASC_NODE>262.3759</RA_OF_ASC_NODE><ARG_OF_PERICENTER>42.8847</ARG_OF_PERICENTER><MEAN_ANOMALY>317.2232</MEAN_ANOMALY></meanElements><tleParameters><EPHEMERIS_TYPE>0</EPHEMERIS_TYPE><CLASSIFICATION_TYPE>U</CLASSIFICATION_TYPE><NORAD_CAT_ID>65767</NORAD_CAT_ID><ELEMENT_SET_NO>999</ELEMENT_SET_NO><REV_AT_EPOCH>1743</REV_AT_EPOCH><BSTAR>.87025241E-3</BSTAR><MEAN_MOTION_DOT>.6418E-4</MEAN_MOTION_DOT><MEAN_MOTION_DDOT>0</MEAN_MOTION_DDOT></tleParameters></data></segment></body></omm>

</ndm>
